GORIZONT 1              
1 11158U 78118A   24161.56113066 -.00000005  00000+0  00000+0 0  9997
2 11158  11.4536 177.7490 3255450 320.8512  19.4948  1.00244979115545
GORIZONT 2              
1 11440U 79062A   24162.92029539  .00000023  00000+0  00000+0 0  9991
2 11440   7.5501 293.6135 0001658 303.0096  57.5010  1.00250080130648
GORIZONT 3              
1 11648U 79105A   24162.90203465  .00000143  00000+0  00000+0 0  9992
2 11648   7.7245 295.2325 0012480 233.8952  96.0062  1.00253434115093
GORIZONT 4              
1 11841U 80049A   24162.64380899 -.00000167  00000+0  00000+0 0  9991
2 11841   8.9244 301.7392 0000190 358.9877 195.8926  0.98631441226259
GORIZONT 5              
1 13092U 82020A   24162.60910491 -.00000146  00000+0  00000+0 0  9992
2 13092   9.9953 307.2974 0033451 231.9626 129.9297  0.98533650114340
GORIZONT 6              
1 13624U 82103A   24162.77979859 -.00000227  00000+0  00000+0 0  9996
2 13624   8.9473 307.5428 0000555 207.4873 354.8226  1.00271532113561
GORIZONT 7              
1 14160U 83066A   24162.44279549  .00000006  00000+0  00000+0 0  9998
2 14160  10.7583 317.5628 0010018 329.6087 205.3810  0.98346367147507
GORIZONT 8              
1 14532U 83118A   24162.81195146 -.00000181  00000+0  00000+0 0  9995
2 14532  10.9706 319.5302 0029748 166.3147 197.3139  0.98271127113275
GORIZONT 9              
1 14940U 84041A   24162.87676709 -.00000295  00000+0  00000+0 0  9995
2 14940  10.1474 317.3851 0004779 236.2115 118.6649  1.00271036114553
GORIZONT 10             
1 15144U 84078A   24162.77683983 -.00000286  00000+0  00000+0 0  9993
2 15144  10.2653 318.4155 0000579 229.9377 305.2943  1.00321270147195
GORIZONT 11             
1 15484U 85007A   24162.51116190  .00000062  00000+0  00000+0 0  9997
2 15484  10.4829 320.5061 0004278 180.4171   0.5298  1.00155950145233
GORIZONT 12             
1 16769U 86044A   24162.87894266 -.00000355  00000+0  00000+0 0  9998
2 16769  11.2292 326.0346 0001747 241.9770 115.9240  1.00250023139874
GORIZONT 13             
1 17083U 86090A   24162.50177448 -.00000076  00000+0  00000+0 0  9995
2 17083  13.2540 333.5400 0012664 352.5496   8.5372  0.96725746111528
GORIZONT 14             
1 17969U 87040A   24162.64563647 -.00000144  00000+0  00000+0 0  9995
2 17969  11.9847 324.6346 0031272 190.6547 351.3295  0.97659858112660
GORIZONT 15             
1 19017U 88028A   24162.67959302 -.00000171  00000+0  00000+0 0  9998
2 19017  13.6268 336.1438 0036851 173.7316 179.5928  0.97829980112293
GORIZONT 16             
1 19397U 88071A   24162.84695817 -.00000300  00000+0  00000+0 0  9998
2 19397  12.4624 334.8192 0013701  82.0922  94.5208  0.99978339130879
GORIZONT 17             
1 19765U 89004A   24162.68107241 -.00000100  00000+0  00000+0 0  9993
2 19765  13.0948 338.2776 0023275 150.2651 208.8440  0.99068276128273
GORIZONT 18             
1 20107U 89052A   24162.91386139 -.00000161  00000+0  00000+0 0  9996
2 20107  13.1760 339.4948 0033528 331.8222 201.1500  0.99399286127095
GORIZONT 19             
1 20263U 89081A   24162.65068377  .00000120  00000+0  00000+0 0  9997
2 20263  12.8864 338.6041 0003965 219.0778 336.0511  1.00235027 39951
GORIZONT 20             
1 20659U 90054A   24162.78846434 -.00000222  00000+0  00000+0 0  9994
2 20659  13.4047 341.3451 0007123 194.1006  93.6967  1.00316122124304
GORIZONT 21             
1 20923U 90094A   24162.64641966  .00000089  00000+0  00000+0 0  9990
2 20923  13.4384 342.0877 0005683 216.1525 312.0297  1.00335573123069
GORIZONT 22             
1 20953U 90102A   24162.71467062 -.00000023  00000+0  00000+0 0  9993
2 20953  13.4087 342.5207 0001542  19.3317 156.4332  1.00264994122984
GORIZONT 23             
1 21533U 91046A   24162.71493169 -.00000189  00000+0  00000+0 0  9996
2 21533  14.2869 346.7431 0003703 314.0751 219.1520  0.98910974 39401
GORIZONT 24             
1 21759U 91074A   24162.76959861  .00000000  00000+0  00000+0 0  9999
2 21759  14.4993 348.7272 0019413 240.6145  15.8066  0.98441890117704
GORIZONT 25             
1 21922U 92017A   24162.68602008 -.00000279  00000+0  00000+0 0  9997
2 21922  14.0256 347.9294 0028203 100.7478 161.9701  0.99846577117588
GORIZONT 26             
1 22041U 92043A   24162.85165740 -.00000275  00000+0  00000+0 0  9991
2 22041  14.2573 350.0353 0031929 250.1191 297.5469  0.99246269116169
GORIZONT 27             
1 22245U 92082A   24162.68507545  .00000094  00000+0  00000+0 0  9992
2 22245  14.1624 349.4511 0010772  26.2805 343.5657  1.00168984119744
GORIZONT 28             
1 22880U 93069A   24162.68377010  .00000059  00000+0  00000+0 0  9996
2 22880  14.4224 353.4243 0034545 150.7744 208.0196  0.99653956111788
GORIZONT 29             
1 22907U 93072A   24161.65662456  .00000088  00000+0  00000+0 0  9999
2 22907  14.3176 352.8119 0008722 359.9728 192.9656  1.00118692111789
GORIZONT 30             
1 23108U 94030A   24162.78573677 -.00000044  00000+0  00000+0 0  9992
2 23108  14.3580 353.6998 0002505 198.9945 349.1711  1.00248922110070
GORIZONT 31             
1 23775U 96005A   24162.58496418  .00000006  00000+0  00000+0 0  9998
2 23775  14.4674   0.0454 0020336 219.1942 320.0537  0.99881443103692
GORIZONT 32             
1 23880U 96034A   24162.78765125  .00000014  00000+0  00000+0 0  9992
2 23880  14.4329   0.5062 0006778   2.6522 188.9208  1.00197654102657
GORIZONT 33             
1 26372U 00029A   24162.07827141 -.00000057  00000+0  00000+0 0  9997
2 26372  13.5036  12.0887 0001896 163.2823 177.5817  1.00393491 88030
